
# Worst residual: 86.04 km
# MJD 60303.000000 (2023 Dec 25  0:00)
A112FqH = A112t8l
1 79944U 24999ZZY 23359.49919926  .00000000  00000-0  00000-0 0 22284
2 79944 032.9487 016.7148 4843703 303.5363 196.7156 00.99874816    04

# Worst residual: 85.38 km
# MJD 60304.000000 (2023 Dec 26  0:00)
A112FqH = A112t8l
1 79944U 24999ZZY 23360.49919926  .00000000  00000-0  00000-0 0 22286
2 79944 032.9723 016.6445 4886407 304.0543 196.1653 00.99870423    06

# Worst residual: 85.48 km
# MJD 60305.000000 (2023 Dec 27  0:00)
A112FqH = A112t8l
1 79944U 24999ZZY 23361.49919926  .00000000  00000-0  00000-0 0 22287
2 79944 032.9861 016.5723 4929538 304.5807 195.6057 00.99867181    07

# Worst residual: 83.97 km
# MJD 60306.000000 (2023 Dec 28  0:00)
A112FqH = A112t8l
1 79944U 24999ZZY 23362.49919926  .00000000  00000-0  00000-0 0 22288
2 79944 033.0078 016.4943 4971821 305.1149 195.0387 00.99866354    01

# Worst residual: 84.00 km
# MJD 60307.000000 (2023 Dec 29  0:00)
A112FqH = A112t8l
1 79944U 24999ZZY 23363.49919926  .00000000  00000-0  00000-0 0 22289
2 79944 033.0273 016.4227 5013412 305.6382 194.4769 00.99859624    00

# Worst residual: 82.85 km
# MJD 60308.000000 (2023 Dec 30  0:00)
A112FqH = A112t8l
1 79944U 24999ZZY 23364.49919926  .00000000  00000-0  00000-0 0 22280
2 79944 033.0495 016.3455 5054403 306.1707 193.9068 00.99856729    09

# Worst residual: 81.56 km
# MJD 60309.000000 (2023 Dec 31  0:00)
A112FqH = A112t8l
1 79944U 24999ZZY 23365.49919926  .00000000  00000-0  00000-0 0 22281
2 79944 033.0727 016.2670 5094710 306.7037 193.3350 00.99854553    03

# Worst residual: 77.80 km
# MJD 60310.000000 (2024 Jan  1  0:00)
A112FqH = A112t8l
1 79944U 24999ZZY 24001.49919926  .00000000  00000-0  00000-0 0 22289
2 79944 033.0984 016.1777 5134754 307.2430 192.7613 00.99854357    08

# Worst residual: 79.14 km
# MJD 60311.000000 (2024 Jan  2  0:00)
A112FqH = A112t8l
1 79944U 24999ZZY 24002.49919926  .00000000  00000-0  00000-0 0 22280
2 79944 033.1220 016.1066 5173369 307.7673 192.1915 00.99851639    01

# Worst residual: 76.92 km
# MJD 60312.000000 (2024 Jan  3  0:00)
A112FqH = A112t8l
1 79944U 24999ZZY 24003.49919926  .00000000  00000-0  00000-0 0 22281
2 79944 033.1511 016.0246 5211735 308.2958 191.6208 00.99852681    02

# Worst residual: 76.73 km
# MJD 60313.000000 (2024 Jan  4  0:00)
A112FqH = A112t8l
1 79944U 24999ZZY 24004.49919926  .00000000  00000-0  00000-0 0 22282
2 79944 033.1736 015.9486 5250270 308.8200 191.0529 00.99848535    01

# Worst residual: 75.08 km
# MJD 60314.000000 (2024 Jan  5  0:00)
A112FqH = A112t8l
1 79944U 24999ZZY 24005.49919926  .00000000  00000-0  00000-0 0 22283
2 79944 033.2069 015.8584 5287653 309.3544 190.4791 00.99847714    03

# Worst residual: 76.36 km
# MJD 60315.000000 (2024 Jan  6  0:00)
A112FqH = A112t8l
1 79944U 24999ZZY 24006.49919926  .00000000  00000-0  00000-0 0 22284
2 79944 033.2309 015.7735 5324510 309.8814 189.9043 00.99844976    06

# Worst residual: 73.59 km
# MJD 60316.000000 (2024 Jan  7  0:00)
A112FqH = A112t8l
1 79944U 24999ZZY 24007.49919926  .00000000  00000-0  00000-0 0 22285
2 79944 033.2645 015.6786 5361518 310.4192 189.3245 00.99842792    02

# Worst residual: 71.22 km
# MJD 60317.000000 (2024 Jan  8  0:00)
A112FqH = A112t8l
1 79944U 24999ZZY 24008.49919926  .00000000  00000-0  00000-0 0 22286
2 79944 033.2915 015.5959 5397612 310.9345 188.7565 00.99843116    01

# Worst residual: 73.28 km
# MJD 60318.000000 (2024 Jan  9  0:00)
A112FqH = A112t8l
1 79944U 24999ZZY 24009.49919926  .00000000  00000-0  00000-0 0 22287
2 79944 033.3239 015.5032 5433378 311.4867 188.1555 00.99839763    04

# Worst residual: 72.76 km
# MJD 60319.000000 (2024 Jan 10  0:00)
A112FqH = A112t8l
1 79944U 24999ZZY 24010.49919926  .00000000  00000-0  00000-0 0 22289
2 79944 033.3568 015.4139 5468536 312.0210 187.5597 00.99835209    09

# Worst residual: 72.45 km
# MJD 60320.000000 (2024 Jan 11  0:00)
A112FqH = A112t8l
1 79944U 24999ZZY 24011.49919926  .00000000  00000-0  00000-0 0 22280
2 79944 033.3884 015.3304 5503148 312.5502 186.9687 00.99831276    04

# Worst residual: 71.20 km
# MJD 60321.000000 (2024 Jan 12  0:00)
A112FqH = A112t8l
1 79944U 24999ZZY 24012.49919926  .00000000  00000-0  00000-0 0 22281
2 79944 033.4230 015.2387 5537169 313.0890 186.3685 00.99829451    00

# Worst residual: 70.00 km
# MJD 60322.000000 (2024 Jan 13  0:00)
A112FqH = A112t8l
1 79944U 24999ZZY 24013.49919926  .00000000  00000-0  00000-0 0 22282
2 79944 033.4585 015.1463 5570572 313.6277 185.7664 00.99828232    03

# Worst residual: 68.94 km
# MJD 60323.000000 (2024 Jan 14  0:00)
A112FqH = A112t8l
1 79944U 24999ZZY 24014.49919926  .00000000  00000-0  00000-0 0 22283
2 79944 033.4950 015.0532 5603393 314.1657 185.1635 00.99827433    05

# Worst residual: 67.02 km
# MJD 60324.000000 (2024 Jan 15  0:00)
A112FqH = A112t8l
1 79944U 24999ZZY 24015.49919926  .00000000  00000-0  00000-0 0 22284
2 79944 033.5309 014.9677 5636008 314.6930 184.5644 00.99830794    07

# Worst residual: 65.38 km
# MJD 60325.000000 (2024 Jan 16  0:00)
A112FqH = A112t8l
1 79944U 24999ZZY 24016.49919926  .00000000  00000-0  00000-0 0 22285
2 79944 033.5697 014.8638 5667934 315.2418 183.9575 00.99830558    07

# Worst residual: 66.21 km
# MJD 60326.000000 (2024 Jan 17  0:00)
A112FqH = A112t8l
1 79944U 24999ZZY 24017.49919926  .00000000  00000-0  00000-0 0 22286
2 79944 033.6102 014.7694 5698745 315.7771 183.3500 00.99825512    07

# Worst residual: 63.87 km
# MJD 60327.000000 (2024 Jan 18  0:00)
A112FqH = A112t8l
1 79944U 24999ZZY 24018.49919926  .00000000  00000-0  00000-0 0 22287
2 79944 033.6501 014.6674 5729542 316.3177 182.7437 00.99824655    03

# Worst residual: 63.94 km
# MJD 60328.000000 (2024 Jan 19  0:00)
A112FqH = A112t8l
1 79944U 24999ZZY 24019.49919926  .00000000  00000-0  00000-0 0 22288
2 79944 033.6922 014.5766 5759635 316.8514 182.1351 00.99824685    09

# Worst residual: 62.76 km
# MJD 60329.000000 (2024 Jan 20  0:00)
A112FqH = A112t8l
1 79944U 24999ZZY 24020.49919926  .00000000  00000-0  00000-0 0 22280
2 79944 033.7347 014.4794 5789219 317.3874 181.5271 00.99824479    02
